{"fetched_at":"2026-03-29T16:36:15Z","count":15609,"tles":[{"name":"STARLINK-2315","line1":"1 47789U 21018C   26087.86953245 -.00000416  00000+0 -90162-5 0  9997","line2":"2 47789  53.0558 145.5165 0001522  95.7680 264.3483 15.06397449279775","category":"Starlink"}]}